[{"OBJECT_NAME":"WILDFIRE 5","OBJECT_ID":"2023-133N","EPOCH":"2026-03-09T15:05:21.111648","MEAN_MOTION":13.85448011,"ECCENTRICITY":0.0004913,"INCLINATION":81.0005,"RA_OF_ASC_NODE":103.3656,"ARG_OF_PERICENTER":278.9897,"MEAN_ANOMALY":81.0704,"EPHEMERIS_TYPE":0,"CLASSIFICATION_TYPE":"U","NORAD_CAT_ID":57769,"ELEMENT_SET_NO":999,"REV_AT_EPOCH":12724,"BSTAR":6.7604e-5,"MEAN_MOTION_DOT":8.8e-7,"MEAN_MOTION_DDOT":0},{"OBJECT_NAME":"THOR ABLESTAR R\/B","OBJECT_ID":"1961-015C","EPOCH":"2026-03-09T21:24:40.762944","MEAN_MOTION":14.02700264,"ECCENTRICITY":0.00848347,"INCLINATION":66.7645,"RA_OF_ASC_NODE":308.2469,"ARG_OF_PERICENTER":337.3963,"MEAN_ANOMALY":22.3393,"EPHEMERIS_TYPE":0,"CLASSIFICATION_TYPE":"U","NORAD_CAT_ID":118,"ELEMENT_SET_NO":999,"REV_AT_EPOCH":30221,"BSTAR":0.00014229775,"MEAN_MOTION_DOT":1.47e-6,"MEAN_MOTION_DDOT":0}]
